{
    "links": {
        "self": "http://www.neowsapp.com/rest/v1/neo/3843606?api_key=iIulBulltgU6a56xZRHN4H3l9WmuAYTsLGpBGhQ2"
    },
    "id": "3843606",
    "neo_reference_id": "3843606",
    "name": "(2019 QX1)",
    "designation": "2019 QX1",
    "nasa_jpl_url": "http://ssd.jpl.nasa.gov/sbdb.cgi?sstr=3843606",
    "absolute_magnitude_h": 25.3,
    "estimated_diameter": {
        "kilometers": {
            "estimated_diameter_min": 0.0231502122,
            "estimated_diameter_max": 0.0517654482
        },
        "meters": {
            "estimated_diameter_min": 23.150212221,
            "estimated_diameter_max": 51.7654482198
        },
        "miles": {
            "estimated_diameter_min": 0.0143848705,
            "estimated_diameter_max": 0.0321655483
        },
        "feet": {
            "estimated_diameter_min": 75.9521422633,
            "estimated_diameter_max": 169.8341531374
        }
    },
    "is_potentially_hazardous_asteroid": false,
    "close_approach_data": [
        {
            "close_approach_date": "2017-12-11",
            "close_approach_date_full": "2017-Dec-11 14:48",
            "epoch_date_close_approach": 1513003680000,
            "relative_velocity": {
                "kilometers_per_second": "4.8032230476",
                "kilometers_per_hour": "17291.6029714411",
                "miles_per_hour": "10744.3296352268"
            },
            "miss_distance": {
                "astronomical": "1.7311421358",
                "lunar": "673.4142908262",
                "kilometers": "258975176.182930746",
                "miles": "160919712.5338504548"
            },
            "orbiting_body": "Juptr"
        },
        {
            "close_approach_date": "2019-09-02",
            "close_approach_date_full": "2019-Sep-02 19:52",
            "epoch_date_close_approach": 1567453920000,
            "relative_velocity": {
                "kilometers_per_second": "16.8449414568",
                "kilometers_per_hour": "60641.7892446139",
                "miles_per_hour": "37680.4495447991"
            },
            "miss_distance": {
                "astronomical": "0.0485008279",
                "lunar": "18.8668220531",
                "kilometers": "7255620.547076573",
                "miles": "4508433.5491117874"
            },
            "orbiting_body": "Earth"
        }
    ],
    "orbital_data": {
        "orbit_id": "1",
        "orbit_determination_date": "2019-08-26 05:42:27",
        "first_observation_date": "2019-08-24",
        "last_observation_date": "2019-08-26",
        "data_arc_in_days": 2,
        "observations_used": 10,
        "orbit_uncertainty": "8",
        "minimum_orbit_intersection": ".0460233",
        "jupiter_tisserand_invariant": "3.101",
        "epoch_osculation": "2458720.5",
        "eccentricity": ".680848253085142",
        "semi_major_axis": "2.460000433479185",
        "inclination": "11.8223152129181",
        "ascending_node_longitude": "147.0938193763883",
        "orbital_period": "1409.292699952185",
        "perihelion_distance": ".7851134357561901",
        "perihelion_argument": "257.0085257512916",
        "aphelion_distance": "4.134887431202181",
        "perihelion_time": "2458771.985555549394",
        "mean_anomaly": "346.8481543980106",
        "mean_motion": ".2554472892765386",
        "equinox": "J2000",
        "orbit_class": {
            "orbit_class_type": "APO",
            "orbit_class_description": "Near-Earth asteroid orbits which cross the Earth’s orbit similar to that of 1862 Apollo",
            "orbit_class_range": "a (semi-major axis) > 1.0 AU; q (perihelion) < 1.017 AU"
        }
    },
    "is_sentry_object": false
}